[{"OBJECT_NAME":"ONEWEB-0118","OBJECT_ID":"2020-100G","EPOCH":"2026-03-09T20:13:27.738624","MEAN_MOTION":13.12441002,"ECCENTRICITY":0.00019173,"INCLINATION":87.9003,"RA_OF_ASC_NODE":10.3687,"ARG_OF_PERICENTER":69.0195,"MEAN_ANOMALY":291.1138,"EPHEMERIS_TYPE":0,"CLASSIFICATION_TYPE":"U","NORAD_CAT_ID":47264,"ELEMENT_SET_NO":999,"REV_AT_EPOCH":25169,"BSTAR":4.0020893e-5,"MEAN_MOTION_DOT":2.7e-7,"MEAN_MOTION_DDOT":0},{"OBJECT_NAME":"UNKNOWN","OBJECT_ID":"","EPOCH":"2026-03-06T15:35:58.139808","MEAN_MOTION":13.15583679,"ECCENTRICITY":0.00194869,"INCLINATION":82.5467,"RA_OF_ASC_NODE":217.4429,"ARG_OF_PERICENTER":167.5979,"MEAN_ANOMALY":192.5626,"EPHEMERIS_TYPE":0,"CLASSIFICATION_TYPE":"U","NORAD_CAT_ID":270264,"ELEMENT_SET_NO":999,"REV_AT_EPOCH":28717,"BSTAR":0.0016239036,"MEAN_MOTION_DOT":6.25e-6,"MEAN_MOTION_DDOT":0}]
